HST                     
1 20580U 90037B   26116.56359936  .00007841  00000+0  25327-3 0  9997
2 20580  28.4745  73.2359 0001646 293.0717  66.9705 15.30160031780651
POLAR                   
1 23802U 96013A   26115.66170527  .00000018  00000+0  00000+0 0  9990
2 23802  79.8025 227.6602 6417642 210.8763  86.7147  1.29845763144175
SWAS                    
1 25560U 98071A   26116.85624027  .00004197  00000+0  26931-3 0  9997
2 25560  69.8979 359.8568 0007303 311.0850  48.9682 15.09261949489524
CXO                     
1 25867U 99040B   26119.13194012  .00000562  00000+0  00000+0 0  9991
2 25867  55.4178 118.0274 7914890 310.5929   0.1646  0.37810555 17133
XMM-NEWTON              
1 25989U 99066A   26117.48801710 -.00000022  00000+0  00000+0 0  9992
2 25989  64.7433 283.6320 4689370  65.8291   0.0919  0.50130113 22753
TERRA                   
1 25994U 99068A   26116.88251602  .00000379  00000+0  86257-4 0  9999
2 25994  97.9501 168.4524 0003157  54.7148 122.5190 14.61060954402111
CLUSTER II-FM7 (SAMBA)  
1 26410U 00041A   26116.81760381  .00002042  00000+0  00000+0 0  9994
2 26410 149.6713  42.1462 8992296 258.6890   0.4419  0.44809102 20073
CLUSTER II-FM8 (TANGO)  
1 26464U 00045B   26118.88599557  .00002324  00000+0  00000+0 0  9994
2 26464 149.9537  43.4083 8998119 259.8366   1.1072  0.44400781 20076
ODIN                    
1 26702U 01007A   26116.67571799  .00056950  00000+0  61867-3 0  9997
2 26702  97.3970 154.8349 0001753  37.0089 323.1290 15.63312944381326
TIMED                   
1 26998U 01055B   26116.89057727  .00001076  00000+0  10156-3 0  9995
2 26998  74.0684 338.2975 0001735 210.5099 149.5985 14.95169477323152
CORIOLIS                
1 27640U 03001A   26116.75750532  .00000136  00000+0  84610-4 0  9995
2 27640  98.7144 124.4251 0014059   6.1602 353.9745 14.19930052206926
SORCE                   
1 27651U 03004A   26116.66381266  .00003422  00000+0  25732-3 0  9994
2 27651  39.9900 195.5724 0016409  38.8548 321.3423 15.03425891264145
MOST                    
1 27843U 03031D   26116.61031513  .00000085  00000+0  59002-4 0  9999
2 27843  98.7064 125.0534 0010653  46.3115 313.8943 14.21311393183387
SCISAT 1                
1 27858U 03036A   26116.83461252  .00000668  00000+0  90139-4 0  9994
2 27858  73.9289 273.3675 0007575 340.0685  20.0194 14.81387461223841
SWIFT                   
1 28485U 04047A   26116.58527097  .00051910  00000+0  52220-3 0  9990
2 28485  20.5524 221.4796 0001680 332.8404  27.1953 15.63634576178769
HINODE (SOLAR-B)        
1 29479U 06041A   26116.60823694  .00000814  00000+0  14839-3 0  9996
2 29479  98.0579 133.5179 0018970  91.9686 268.3692 14.68546578 47308
SHIJIAN-6 02A (SJ-6 02A)
1 29505U 06046A   26116.82721501  .00005615  00000+0  29301-3 0  9993
2 29505  97.6418 157.5194 0002169 353.1280   6.9923 15.16346387 64485
