[{"OBJECT_NAME":"HST","OBJECT_ID":"1990-037B","EPOCH":"2026-04-26T13:31:34.984704","MEAN_MOTION":15.30160031,"ECCENTRICITY":0.0001646,"INCLINATION":28.4745,"RA_OF_ASC_NODE":73.2359,"ARG_OF_PERICENTER":293.0717,"MEAN_ANOMALY":66.9705,"EPHEMERIS_TYPE":0,"CLASSIFICATION_TYPE":"U","NORAD_CAT_ID":20580,"ELEMENT_SET_NO":999,"REV_AT_EPOCH":78065,"BSTAR":0.00025327,"MEAN_MOTION_DOT":7.841e-5,"MEAN_MOTION_DDOT":0},{"OBJECT_NAME":"POLAR","OBJECT_ID":"1996-013A","EPOCH":"2026-04-25T15:52:51.335328","MEAN_MOTION":1.29845763,"ECCENTRICITY":0.64176425,"INCLINATION":79.8025,"RA_OF_ASC_NODE":227.6602,"ARG_OF_PERICENTER":210.8763,"MEAN_ANOMALY":86.7147,"EPHEMERIS_TYPE":0,"CLASSIFICATION_TYPE":"U","NORAD_CAT_ID":23802,"ELEMENT_SET_NO":999,"REV_AT_EPOCH":14417,"BSTAR":0,"MEAN_MOTION_DOT":1.8e-7,"MEAN_MOTION_DDOT":0},{"OBJECT_NAME":"SWAS","OBJECT_ID":"1998-071A","EPOCH":"2026-04-26T20:32:59.159328","MEAN_MOTION":15.09261949,"ECCENTRICITY":0.0007303,"INCLINATION":69.8979,"RA_OF_ASC_NODE":359.8568,"ARG_OF_PERICENTER":311.085,"MEAN_ANOMALY":48.9682,"EPHEMERIS_TYPE":0,"CLASSIFICATION_TYPE":"U","NORAD_CAT_ID":25560,"ELEMENT_SET_NO":999,"REV_AT_EPOCH":48952,"BSTAR":0.00026931,"MEAN_MOTION_DOT":4.197e-5,"MEAN_MOTION_DDOT":0},{"OBJECT_NAME":"CXO","OBJECT_ID":"1999-040B","EPOCH":"2026-04-29T03:09:59.626368","MEAN_MOTION":0.37810555,"ECCENTRICITY":0.791489,"INCLINATION":55.4178,"RA_OF_ASC_NODE":118.0274,"ARG_OF_PERICENTER":310.5929,"MEAN_ANOMALY":0.1646,"EPHEMERIS_TYPE":0,"CLASSIFICATION_TYPE":"U","NORAD_CAT_ID":25867,"ELEMENT_SET_NO":999,"REV_AT_EPOCH":1713,"BSTAR":0,"MEAN_MOTION_DOT":5.62e-6,"MEAN_MOTION_DDOT":0},{"OBJECT_NAME":"XMM-NEWTON","OBJECT_ID":"1999-066A","EPOCH":"2026-04-27T11:42:44.677440","MEAN_MOTION":0.50130113,"ECCENTRICITY":0.46893703,"INCLINATION":64.7433,"RA_OF_ASC_NODE":283.632,"ARG_OF_PERICENTER":65.8291,"MEAN_ANOMALY":0.0919,"EPHEMERIS_TYPE":0,"CLASSIFICATION_TYPE":"U","NORAD_CAT_ID":25989,"ELEMENT_SET_NO":999,"REV_AT_EPOCH":2275,"BSTAR":0,"MEAN_MOTION_DOT":-2.2e-7,"MEAN_MOTION_DDOT":0},{"OBJECT_NAME":"TERRA","OBJECT_ID":"1999-068A","EPOCH":"2026-04-26T21:10:49.384128","MEAN_MOTION":14.61060954,"ECCENTRICITY":0.0003157,"INCLINATION":97.9501,"RA_OF_ASC_NODE":168.4524,"ARG_OF_PERICENTER":54.7148,"MEAN_ANOMALY":122.519,"EPHEMERIS_TYPE":0,"CLASSIFICATION_TYPE":"U","NORAD_CAT_ID":25994,"ELEMENT_SET_NO":999,"REV_AT_EPOCH":40211,"BSTAR":8.6257e-5,"MEAN_MOTION_DOT":3.79e-6,"MEAN_MOTION_DDOT":0},{"OBJECT_NAME":"CLUSTER II-FM7 (SAMBA)","OBJECT_ID":"2000-041A","EPOCH":"2026-04-26T19:37:20.969184","MEAN_MOTION":0.44809102,"ECCENTRICITY":0.89922964,"INCLINATION":149.6713,"RA_OF_ASC_NODE":42.1462,"ARG_OF_PERICENTER":258.689,"MEAN_ANOMALY":0.4419,"EPHEMERIS_TYPE":0,"CLASSIFICATION_TYPE":"U","NORAD_CAT_ID":26410,"ELEMENT_SET_NO":999,"REV_AT_EPOCH":2007,"BSTAR":0,"MEAN_MOTION_DOT":2.042e-5,"MEAN_MOTION_DDOT":0},{"OBJECT_NAME":"CLUSTER II-FM8 (TANGO)","OBJECT_ID":"2000-045B","EPOCH":"2026-04-28T21:15:50.017248","MEAN_MOTION":0.44400781,"ECCENTRICITY":0.8998119,"INCLINATION":149.9537,"RA_OF_ASC_NODE":43.4083,"ARG_OF_PERICENTER":259.8366,"MEAN_ANOMALY":1.1072,"EPHEMERIS_TYPE":0,"CLASSIFICATION_TYPE":"U","NORAD_CAT_ID":26464,"ELEMENT_SET_NO":999,"REV_AT_EPOCH":2007,"BSTAR":0,"MEAN_MOTION_DOT":2.324e-5,"MEAN_MOTION_DDOT":0},{"OBJECT_NAME":"ODIN","OBJECT_ID":"2001-007A","EPOCH":"2026-04-26T16:13:02.034336","MEAN_MOTION":15.63312944,"ECCENTRICITY":0.0001753,"INCLINATION":97.397,"RA_OF_ASC_NODE":154.8349,"ARG_OF_PERICENTER":37.0089,"MEAN_ANOMALY":323.129,"EPHEMERIS_TYPE":0,"CLASSIFICATION_TYPE":"U","NORAD_CAT_ID":26702,"ELEMENT_SET_NO":999,"REV_AT_EPOCH":38132,"BSTAR":0.00061867,"MEAN_MOTION_DOT":0.0005695,"MEAN_MOTION_DDOT":0},{"OBJECT_NAME":"TIMED","OBJECT_ID":"2001-055B","EPOCH":"2026-04-26T21:22:25.876128","MEAN_MOTION":14.95169477,"ECCENTRICITY":0.0001735,"INCLINATION":74.0684,"RA_OF_ASC_NODE":338.2975,"ARG_OF_PERICENTER":210.5099,"MEAN_ANOMALY":149.5985,"EPHEMERIS_TYPE":0,"CLASSIFICATION_TYPE":"U","NORAD_CAT_ID":26998,"ELEMENT_SET_NO":999,"REV_AT_EPOCH":32315,"BSTAR":0.00010156,"MEAN_MOTION_DOT":1.076e-5,"MEAN_MOTION_DDOT":0},{"OBJECT_NAME":"CORIOLIS","OBJECT_ID":"2003-001A","EPOCH":"2026-04-26T18:10:48.459648","MEAN_MOTION":14.19930052,"ECCENTRICITY":0.0014059,"INCLINATION":98.7144,"RA_OF_ASC_NODE":124.4251,"ARG_OF_PERICENTER":6.1602,"MEAN_ANOMALY":353.9745,"EPHEMERIS_TYPE":0,"CLASSIFICATION_TYPE":"U","NORAD_CAT_ID":27640,"ELEMENT_SET_NO":999,"REV_AT_EPOCH":20692,"BSTAR":8.461e-5,"MEAN_MOTION_DOT":1.36e-6,"MEAN_MOTION_DDOT":0},{"OBJECT_NAME":"SORCE","OBJECT_ID":"2003-004A","EPOCH":"2026-04-26T15:55:53.413824","MEAN_MOTION":15.03425891,"ECCENTRICITY":0.0016409,"INCLINATION":39.99,"RA_OF_ASC_NODE":195.5724,"ARG_OF_PERICENTER":38.8548,"MEAN_ANOMALY":321.3423,"EPHEMERIS_TYPE":0,"CLASSIFICATION_TYPE":"U","NORAD_CAT_ID":27651,"ELEMENT_SET_NO":999,"REV_AT_EPOCH":26414,"BSTAR":0.00025732,"MEAN_MOTION_DOT":3.422e-5,"MEAN_MOTION_DDOT":0},{"OBJECT_NAME":"MOST","OBJECT_ID":"2003-031D","EPOCH":"2026-04-26T14:38:51.227232","MEAN_MOTION":14.21311393,"ECCENTRICITY":0.0010653,"INCLINATION":98.7064,"RA_OF_ASC_NODE":125.0534,"ARG_OF_PERICENTER":46.3115,"MEAN_ANOMALY":313.8943,"EPHEMERIS_TYPE":0,"CLASSIFICATION_TYPE":"U","NORAD_CAT_ID":27843,"ELEMENT_SET_NO":999,"REV_AT_EPOCH":18338,"BSTAR":5.9002e-5,"MEAN_MOTION_DOT":8.5e-7,"MEAN_MOTION_DDOT":0},{"OBJECT_NAME":"SCISAT 1","OBJECT_ID":"2003-036A","EPOCH":"2026-04-26T20:01:50.521728","MEAN_MOTION":14.81387461,"ECCENTRICITY":0.0007575,"INCLINATION":73.9289,"RA_OF_ASC_NODE":273.3675,"ARG_OF_PERICENTER":340.0685,"MEAN_ANOMALY":20.0194,"EPHEMERIS_TYPE":0,"CLASSIFICATION_TYPE":"U","NORAD_CAT_ID":27858,"ELEMENT_SET_NO":999,"REV_AT_EPOCH":22384,"BSTAR":9.0139e-5,"MEAN_MOTION_DOT":6.68e-6,"MEAN_MOTION_DDOT":0},{"OBJECT_NAME":"SWIFT","OBJECT_ID":"2004-047A","EPOCH":"2026-04-26T14:02:47.411808","MEAN_MOTION":15.63634576,"ECCENTRICITY":0.000168,"INCLINATION":20.5524,"RA_OF_ASC_NODE":221.4796,"ARG_OF_PERICENTER":332.8404,"MEAN_ANOMALY":27.1953,"EPHEMERIS_TYPE":0,"CLASSIFICATION_TYPE":"U","NORAD_CAT_ID":28485,"ELEMENT_SET_NO":999,"REV_AT_EPOCH":17876,"BSTAR":0.0005222,"MEAN_MOTION_DOT":0.0005191,"MEAN_MOTION_DDOT":0},{"OBJECT_NAME":"HINODE (SOLAR-B)","OBJECT_ID":"2006-041A","EPOCH":"2026-04-26T14:35:51.671616","MEAN_MOTION":14.68546578,"ECCENTRICITY":0.001897,"INCLINATION":98.0579,"RA_OF_ASC_NODE":133.5179,"ARG_OF_PERICENTER":91.9686,"MEAN_ANOMALY":268.3692,"EPHEMERIS_TYPE":0,"CLASSIFICATION_TYPE":"U","NORAD_CAT_ID":29479,"ELEMENT_SET_NO":999,"REV_AT_EPOCH":4730,"BSTAR":0.00014839,"MEAN_MOTION_DOT":8.14e-6,"MEAN_MOTION_DDOT":0},{"OBJECT_NAME":"SHIJIAN-6 02A (SJ-6 02A)","OBJECT_ID":"2006-046A","EPOCH":"2026-04-26T19:51:11.376864","MEAN_MOTION":15.16346387,"ECCENTRICITY":0.0002169,"INCLINATION":97.6418,"RA_OF_ASC_NODE":157.5194,"ARG_OF_PERICENTER":353.128,"MEAN_ANOMALY":6.9923,"EPHEMERIS_TYPE":0,"CLASSIFICATION_TYPE":"U","NORAD_CAT_ID":29505,"ELEMENT_SET_NO":999,"REV_AT_EPOCH":6448,"BSTAR":0.00029301,"MEAN_MOTION_DOT":5.615e-5,"MEAN_MOTION_DDOT":0}]
